IRIDIUM 26              
1 24903U 97043A   25177.79453653  .00000311  00000+0  98141-4 0  9996
2 24903  86.3958 106.5877 0002426  82.6805 277.4668 14.37152250458126
IRIDIUM 22              
1 24907U 97043E   25178.22008511  .00000270  00000+0  86199-4 0  9992
2 24907  86.3963 109.9570 0002233  83.4563 276.6888 14.35963992458204
DUMMY MASS 1            
1 24925U 97048A   25177.30009083  .00000291  00000+0  29328-4 0  9994
2 24925  86.3358 131.1169 0008921 107.9105 252.3094 14.86992225506488
DUMMY MASS 2            
1 24926U 97048B   25177.39836569  .00000290  00000+0  29330-4 0  9993
2 24926  86.3358 132.6800 0009519 117.1110 243.1087 14.86744321506279
IRIDIUM 29              
1 24944U 97051A   25177.82150048  .00000290  00000+0  92341-4 0  9998
2 24944  86.3974 139.8578 0002088  88.8658 271.2778 14.36474423454650
IRIDIUM 33              
1 24946U 97051C   25177.88362739  .00000220  00000+0  70377-4 0  9996
2 24946  86.3889 139.0927 0009689  55.6934 304.5178 14.34897480454137
IRIDIUM 28              
1 24948U 97051E   25177.78913117  .00000238  00000+0  73170-4 0  9992
2 24948  86.3978 137.3826 0002717  81.1533 278.9973 14.37391576455227
IRIDIUM 36              
1 24967U 97056C   25178.02939648  .00000281  00000+0  86925-4 0  9993
2 24967  86.3989 168.8655 0002272  81.7869 278.3586 14.37616088453638
